{"type": "FeatureCollection", "features": [ {"type": "Feature", "properties": {"norad_id": 29782, "name": "FENGYUN 1C DEB", "group": "fengyun-1c-debris", "lat": -80.72483985016518, "lon": 125.92409661377799, "alt_km": 858.3776524738105, "timestamp": "2025-12-19T06:59:44.179728+00:00", "meta": {"OBJECT_NAME": "FENGYUN 1C DEB", "OBJECT_ID": "1999-025BY", "EPOCH": "2025-12-18T18:24:01.329984", "MEAN_MOTION": 14.11690543, "ECCENTRICITY": 0.00556959, "INCLINATION": 99.1003, "RA_OF_ASC_NODE": 46.447, "ARG_OF_PERICENTER": 186.5208, "MEAN_ANOMALY": 299.0025, "EPHEMERIS_TYPE": 0, "CLASSIFICATION_TYPE": "U", "NORAD_CAT_ID": 29782, "ELEMENT_SET_NO": 999, "REV_AT_EPOCH": 96756, "BSTAR": 0.0011010975, "MEAN_MOTION_DOT": 1.988e-05, "MEAN_MOTION_DDOT": 0}, "tle": {"line1": "1 29782U 99025BY  25352.76668206  .00001988  00000+0  11011-2 0  9992", "line2": "2 29782  99.1003  46.4470 0055695 186.5208 299.0025 14.11690543967561"}}, "geometry": {"type": "Point", "coordinates": [125.92409661377799, -80.72483985016518]}}, {"type": "Feature", "properties": {"norad_id": 29784, "name": "FENGYUN 1C DEB", "group": "fengyun-1c-debris", "lat": 30.657349948954007, "lon": 97.63286329778855, "alt_km": 814.7486268057855, "timestamp": "2025-12-19T06:59:44.179739+00:00", "meta": {"OBJECT_NAME": "FENGYUN 1C DEB", "OBJECT_ID": "1999-025CA", "EPOCH": "2025-12-18T17:09:48.852000", "MEAN_MOTION": 14.30599366, "ECCENTRICITY": 0.00592276, "INCLINATION": 98.9462, "RA_OF_ASC_NODE": 271.6826, "ARG_OF_PERICENTER": 279.7557, "MEAN_ANOMALY": 143.0596, "EPHEMERIS_TYPE": 0, "CLASSIFICATION_TYPE": "U", "NORAD_CAT_ID": 29784, "ELEMENT_SET_NO": 999, "REV_AT_EPOCH": 98445, "BSTAR": 0.00038130446, "MEAN_MOTION_DOT": 9.67e-06, "MEAN_MOTION_DDOT": 0}, "tle": {"line1": "1 29784U 99025CA  25352.71514875  .00000967  00000+0  38130-3 0  9999", "line2": "2 29784  98.9462 271.6826 0059227 279.7557 143.0596 14.30599366984453"}}, "geometry": {"type": "Point", "coordinates": [97.63286329778855, 30.657349948954007]}}, {"type": "Feature", "properties": {"norad_id": 29786, "name": "FENGYUN 1C DEB", "group": "fengyun-1c-debris", "lat": -56.784866352706935, "lon": 23.889969501996912, "alt_km": 816.5127084867036, "timestamp": "2025-12-19T06:59:44.179749+00:00", "meta": {"OBJECT_NAME": "FENGYUN 1C DEB", "OBJECT_ID": "1999-025CC", "EPOCH": "2025-12-18T14:50:15.834912", "MEAN_MOTION": 14.09088508, "ECCENTRICITY": 0.00768821, "INCLINATION": 98.7352, "RA_OF_ASC_NODE": 9.6566, "ARG_OF_PERICENTER": 286.2121, "MEAN_ANOMALY": 202.4805, "EPHEMERIS_TYPE": 0, "CLASSIFICATION_TYPE": "U", "NORAD_CAT_ID": 29786, "ELEMENT_SET_NO": 999, "REV_AT_EPOCH": 97243, "BSTAR": 0.00010537428, "MEAN_MOTION_DOT": 1.44e-06, "MEAN_MOTION_DDOT": 0}, "tle": {"line1": "1 29786U 99025CC  25352.61823883  .00000144  00000+0  10537-3 0  9990", "line2": "2 29786  98.7352   9.6566 0076882 286.2121 202.4805 14.09088508972432"}}, "geometry": {"type": "Point", "coordinates": [23.889969501996912, -56.784866352706935]}}, {"type": "Feature", "properties": {"norad_id": 29788, "name": "FENGYUN 1C DEB", "group": "fengyun-1c-debris", "lat": -79.84162455514698, "lon": 124.5834717676791, "alt_km": 819.938113318326, "timestamp": "2025-12-19T06:59:44.179760+00:00", "meta": {"OBJECT_NAME": "FENGYUN 1C DEB", "OBJECT_ID": "1999-025CE", "EPOCH": "2025-12-18T18:27:22.113216", "MEAN_MOTION": 14.26017023, "ECCENTRICITY": 0.00431728, "INCLINATION": 98.7843, "RA_OF_ASC_NODE": 64.4075, "ARG_OF_PERICENTER": 172.3095, "MEAN_ANOMALY": 301.6253, "EPHEMERIS_TYPE": 0, "CLASSIFICATION_TYPE": "U", "NORAD_CAT_ID": 29788, "ELEMENT_SET_NO": 999, "REV_AT_EPOCH": 97441, "BSTAR": 0.0012301045, "MEAN_MOTION_DOT": 2.921e-05, "MEAN_MOTION_DDOT": 0}, "tle": {"line1": "1 29788U 99025CE  25352.76900594  .00002921  00000+0  12301-2 0  9998", "line2": "2 29788  98.7843  64.4075 0043172 172.3095 301.6253 14.26017023974416"}}, "geometry": {"type": "Point", "coordinates": [124.5834717676791, -79.84162455514698]}}, {"type": "Feature", "properties": {"norad_id": 29789, "name": "FENGYUN 1C DEB", "group": "fengyun-1c-debris", "lat": 12.656783928892313, "lon": -2.0474700018726626, "alt_km": 1071.228085515375, "timestamp": "2025-12-19T06:59:44.179770+00:00", "meta": {"OBJECT_NAME": "FENGYUN 1C DEB", "OBJECT_ID": "1999-025CF", "EPOCH": "2025-12-18T06:13:56.091936", "MEAN_MOTION": 13.54253439, "ECCENTRICITY": 0.02983336, "INCLINATION": 99.4511, "RA_OF_ASC_NODE": 174.8213, "ARG_OF_PERICENTER": 264.8716, "MEAN_ANOMALY": 277.8182, "EPHEMERIS_TYPE": 0, "CLASSIFICATION_TYPE": "U", "NORAD_CAT_ID": 29789, "ELEMENT_SET_NO": 999, "REV_AT_EPOCH": 93062, "BSTAR": 0.0011923009, "MEAN_MOTION_DOT": 1.033e-05, "MEAN_MOTION_DDOT": 0}, "tle": {"line1": "1 29789U 99025CF  25352.25967699  .00001033  00000+0  11923-2 0  9994", "line2": "2 29789  99.4511 174.8213 0298333 264.8716 277.8182 13.54253439930628"}}, "geometry": {"type": "Point", "coordinates": [-2.0474700018726626, 12.656783928892313]}}, {"type": "Feature", "properties": {"norad_id": 29790, "name": "FENGYUN 1C DEB", "group": "fengyun-1c-debris", "lat": -22.3837320130012, "lon": -8.523773063022741, "alt_km": 844.4442497715027, "timestamp": "2025-12-19T06:59:44.179781+00:00", "meta": {"OBJECT_NAME": "FENGYUN 1C DEB", "OBJECT_ID": "1999-025CG", "EPOCH": "2025-12-18T22:43:11.431776", "MEAN_MOTION": 14.32278416, "ECCENTRICITY": 0.00767757, "INCLINATION": 99.1474, "RA_OF_ASC_NODE": 347.3079, "ARG_OF_PERICENTER": 158.5375, "MEAN_ANOMALY": 201.9055, "EPHEMERIS_TYPE": 0, "CLASSIFICATION_TYPE": "U", "NORAD_CAT_ID": 29790, "ELEMENT_SET_NO": 999, "REV_AT_EPOCH": 98614, "BSTAR": 0.00021487136, "MEAN_MOTION_DOT": 5.51e-06, "MEAN_MOTION_DDOT": 0}, "tle": {"line1": "1 29790U 99025CG  25352.94666009  .00000551  00000+0  21487-3 0  9994", "line2": "2 29790  99.1474 347.3079 0076775 158.5375 201.9055 14.32278416986140"}}, "geometry": {"type": "Point", "coordinates": [-8.523773063022741, -22.3837320130012]}}, {"type": "Feature", "properties": {"norad_id": 29791, "name": "FENGYUN 1C DEB", "group": "fengyun-1c-debris", "lat": 19.020145004144453, "lon": 177.54478790129897, "alt_km": 712.458585978663, "timestamp": "2025-12-19T06:59:44.179791+00:00", "meta": {"OBJECT_NAME": "FENGYUN 1C DEB", "OBJECT_ID": "1999-025CH", "EPOCH": "2025-12-18T22:18:42.444288", "MEAN_MOTION": 14.58331269, "ECCENTRICITY": 0.00414015, "INCLINATION": 99.036, "RA_OF_ASC_NODE": 354.0072, "ARG_OF_PERICENTER": 43.6022, "MEAN_ANOMALY": 18.1147, "EPHEMERIS_TYPE": 0, "CLASSIFICATION_TYPE": "U", "NORAD_CAT_ID": 29791, "ELEMENT_SET_NO": 999, "REV_AT_EPOCH": 98936, "BSTAR": 0.0011741516, "MEAN_MOTION_DOT": 5.445e-05, "MEAN_MOTION_DDOT": 0}, "tle": {"line1": "1 29791U 99025CH  25352.92965792  .00005445  00000+0  11742-2 0  9993", "line2": "2 29791  99.0360 354.0072 0041401  43.6022  18.1147 14.58331269989364"}}, "geometry": {"type": "Point", "coordinates": [177.54478790129897, 19.020145004144453]}}, {"type": "Feature", "properties": {"norad_id": 29792, "name": "FENGYUN 1C DEB", "group": "fengyun-1c-debris", "lat": -62.7347415808414, "lon": -153.66684455979163, "alt_km": 872.3793002087432, "timestamp": "2025-12-19T06:59:44.179802+00:00", "meta": {"OBJECT_NAME": "FENGYUN 1C DEB", "OBJECT_ID": "1999-025CJ", "EPOCH": "2025-12-18T14:34:24.040416", "MEAN_MOTION": 14.15182264, "ECCENTRICITY": 0.0047697, "INCLINATION": 98.7572, "RA_OF_ASC_NODE": 43.0643, "ARG_OF_PERICENTER": 19.2953, "MEAN_ANOMALY": 341.0014, "EPHEMERIS_TYPE": 0, "CLASSIFICATION_TYPE": "U", "NORAD_CAT_ID": 29792, "ELEMENT_SET_NO": 999, "REV_AT_EPOCH": 97022, "BSTAR": 0.0010087788, "MEAN_MOTION_DOT": 1.938e-05, "MEAN_MOTION_DDOT": 0}, "tle": {"line1": "1 29792U 99025CJ  25352.60722269  .00001938  00000+0  10088-2 0  9994", "line2": "2 29792  98.7572  43.0643 0047697  19.2953 341.0014 14.15182264970228"}}, "geometry": {"type": "Point", "coordinates": [-153.66684455979163, -62.7347415808414]}}, {"type": "Feature", "properties": {"norad_id": 29793, "name": "FENGYUN 1C DEB", "group": "fengyun-1c-debris", "lat": -68.69845506709429, "lon": -30.62021662359705, "alt_km": 859.0803815328545, "timestamp": "2025-12-19T06:59:44.179812+00:00", "meta": {"OBJECT_NAME": "FENGYUN 1C DEB", "OBJECT_ID": "1999-025CK", "EPOCH": "2025-12-18T11:11:51.840672", "MEAN_MOTION": 14.01095208, "ECCENTRICITY": 0.01435875, "INCLINATION": 98.3533, "RA_OF_ASC_NODE": 170.7613, "ARG_OF_PERICENTER": 321.9408, "MEAN_ANOMALY": 91.4047, "EPHEMERIS_TYPE": 0, "CLASSIFICATION_TYPE": "U", "NORAD_CAT_ID": 29793, "ELEMENT_SET_NO": 999, "REV_AT_EPOCH": 96229, "BSTAR": 0.00082495258, "MEAN_MOTION_DOT": 1.314e-05, "MEAN_MOTION_DDOT": 0}, "tle": {"line1": "1 29793U 99025CK  25352.46657223  .00001314  00000+0  82495-3 0  9996", "line2": "2 29793  98.3533 170.7613 0143587 321.9408  91.4047 14.01095208962296"}}, "geometry": {"type": "Point", "coordinates": [-30.62021662359705, -68.69845506709429]}}, {"type": "Feature", "properties": {"norad_id": 29794, "name": "FENGYUN 1C DEB", "group": "fengyun-1c-debris", "lat": 27.175039952211826, "lon": 147.09862101877766, "alt_km": 748.6045362058821, "timestamp": "2025-12-19T06:59:44.179822+00:00", "meta": {"OBJECT_NAME": "FENGYUN 1C DEB", "OBJECT_ID": "1999-025CL", "EPOCH": "2025-12-18T10:42:02.085408", "MEAN_MOTION": 14.09008563, "ECCENTRICITY": 0.01568567, "INCLINATION": 98.2, "RA_OF_ASC_NODE": 150.5738, "ARG_OF_PERICENTER": 24.1383, "MEAN_ANOMALY": 36.3057, "EPHEMERIS_TYPE": 0, "CLASSIFICATION_TYPE": "U", "NORAD_CAT_ID": 29794, "ELEMENT_SET_NO": 999, "REV_AT_EPOCH": 96928, "BSTAR": 0.00046396802, "MEAN_MOTION_DOT": 8.62e-06, "MEAN_MOTION_DDOT": 0}, "tle": {"line1": "1 29794U 99025CL  25352.44585747  .00000862  00000+0  46397-3 0  9994", "line2": "2 29794  98.2000 150.5738 0156856  24.1383  36.3057 14.09008563969287"}}, "geometry": {"type": "Point", "coordinates": [147.09862101877766, 27.175039952211826]}}]}